[Satellite]
VERSION=1.1
NAME=GPS BIIR-07 (DASS)
NICKNAME=GPS BIIR-07 (DASS)
TLE1=1 26690U 01004A   15055.44929024  .00000019  00000-0  00000+0 0  9997
TLE2=2 26690  53.0139 193.0815 0160106 246.3346  70.5931  2.00552580103090
